[{"OBJECT_NAME":"ONEWEB-0449","OBJECT_ID":"2022-012W","EPOCH":"2025-09-13T23:53:39.306912","MEAN_MOTION":13.10372855,"ECCENTRICITY":0.00021038,"INCLINATION":87.8735,"RA_OF_ASC_NODE":91.3401,"ARG_OF_PERICENTER":80.0415,"MEAN_ANOMALY":280.0949,"EPHEMERIS_TYPE":0,"CLASSIFICATION_TYPE":"U","NORAD_CAT_ID":51642,"ELEMENT_SET_NO":999,"REV_AT_EPOCH":17313,"BSTAR":0.0018391058,"MEAN_MOTION_DOT":6.55e-6,"MEAN_MOTION_DDOT":0},{"OBJECT_NAME":"ONEWEB-0451","OBJECT_ID":"2022-012X","EPOCH":"2025-09-14T04:20:26.425824","MEAN_MOTION":13.17649385,"ECCENTRICITY":0.00018939,"INCLINATION":87.9049,"RA_OF_ASC_NODE":60.7283,"ARG_OF_PERICENTER":89.6502,"MEAN_ANOMALY":270.4847,"EPHEMERIS_TYPE":0,"CLASSIFICATION_TYPE":"U","NORAD_CAT_ID":51643,"ELEMENT_SET_NO":999,"REV_AT_EPOCH":17731,"BSTAR":0.00026734487,"MEAN_MOTION_DOT":1.17e-6,"MEAN_MOTION_DDOT":0},{"OBJECT_NAME":"ONEWEB-0452","OBJECT_ID":"2022-012Y","EPOCH":"2025-09-13T22:49:58.101024","MEAN_MOTION":13.1765084,"ECCENTRICITY":0.00018698,"INCLINATION":87.904,"RA_OF_ASC_NODE":60.8364,"ARG_OF_PERICENTER":84.245,"MEAN_ANOMALY":275.8895,"EPHEMERIS_TYPE":0,"CLASSIFICATION_TYPE":"U","NORAD_CAT_ID":51644,"ELEMENT_SET_NO":999,"REV_AT_EPOCH":17729,"BSTAR":4.979245e-6,"MEAN_MOTION_DOT":1.5e-7,"MEAN_MOTION_DDOT":0},{"OBJECT_NAME":"ONEWEB-0456","OBJECT_ID":"2022-012AA","EPOCH":"2025-09-14T05:37:50.507904","MEAN_MOTION":13.10369189,"ECCENTRICITY":0.00014908,"INCLINATION":87.8743,"RA_OF_ASC_NODE":91.2532,"ARG_OF_PERICENTER":84.6625,"MEAN_ANOMALY":275.4672,"EPHEMERIS_TYPE":0,"CLASSIFICATION_TYPE":"U","NORAD_CAT_ID":51646,"ELEMENT_SET_NO":999,"REV_AT_EPOCH":17320,"BSTAR":0.0010297767,"MEAN_MOTION_DOT":3.72e-6,"MEAN_MOTION_DDOT":0},{"OBJECT_NAME":"ONEWEB-0457","OBJECT_ID":"2022-012AB","EPOCH":"2025-09-13T23:34:31.546848","MEAN_MOTION":13.10376404,"ECCENTRICITY":0.00020655,"INCLINATION":87.8743,"RA_OF_ASC_NODE":91.3601,"ARG_OF_PERICENTER":89.5334,"MEAN_ANOMALY":270.603,"EPHEMERIS_TYPE":0,"CLASSIFICATION_TYPE":"U","NORAD_CAT_ID":51647,"ELEMENT_SET_NO":999,"REV_AT_EPOCH":17317,"BSTAR":0.0011971157,"MEAN_MOTION_DOT":4.31e-6,"MEAN_MOTION_DDOT":0},{"OBJECT_NAME":"ONEWEB-0458","OBJECT_ID":"2022-012AC","EPOCH":"2025-09-14T05:35:27.667104","MEAN_MOTION":13.10370152,"ECCENTRICITY":0.00017822,"INCLINATION":87.8733,"RA_OF_ASC_NODE":91.2813,"ARG_OF_PERICENTER":81.2964,"MEAN_ANOMALY":278.8366,"EPHEMERIS_TYPE":0,"CLASSIFICATION_TYPE":"U","NORAD_CAT_ID":51648,"ELEMENT_SET_NO":999,"REV_AT_EPOCH":17316,"BSTAR":0.0013931724,"MEAN_MOTION_DOT":4.99e-6,"MEAN_MOTION_DDOT":0},{"OBJECT_NAME":"ONEWEB-0461","OBJECT_ID":"2022-012AD","EPOCH":"2025-09-14T04:49:35.485824","MEAN_MOTION":13.17651637,"ECCENTRICITY":0.00018229,"INCLINATION":87.905,"RA_OF_ASC_NODE":60.7387,"ARG_OF_PERICENTER":96.7189,"MEAN_ANOMALY":263.415,"EPHEMERIS_TYPE":0,"CLASSIFICATION_TYPE":"U","NORAD_CAT_ID":51649,"ELEMENT_SET_NO":999,"REV_AT_EPOCH":17754,"BSTAR":0.00024421026,"MEAN_MOTION_DOT":1.08e-6,"MEAN_MOTION_DDOT":0},{"OBJECT_NAME":"ONEWEB-0463","OBJECT_ID":"2022-012AE","EPOCH":"2025-09-14T04:22:51.449088","MEAN_MOTION":13.17646831,"ECCENTRICITY":0.00017437,"INCLINATION":87.9031,"RA_OF_ASC_NODE":60.8017,"ARG_OF_PERICENTER":90.9694,"MEAN_ANOMALY":269.1638,"EPHEMERIS_TYPE":0,"CLASSIFICATION_TYPE":"U","NORAD_CAT_ID":51650,"ELEMENT_SET_NO":999,"REV_AT_EPOCH":17732,"BSTAR":8.0462178e-5,"MEAN_MOTION_DOT":4.4e-7,"MEAN_MOTION_DDOT":0},{"OBJECT_NAME":"ONEWEB-0464","OBJECT_ID":"2022-012AF","EPOCH":"2025-09-14T05:30:41.035104","MEAN_MOTION":13.10371254,"ECCENTRICITY":0.00013873,"INCLINATION":87.8735,"RA_OF_ASC_NODE":91.3205,"ARG_OF_PERICENTER":83.4253,"MEAN_ANOMALY":276.7032,"EPHEMERIS_TYPE":0,"CLASSIFICATION_TYPE":"U","NORAD_CAT_ID":51651,"ELEMENT_SET_NO":999,"REV_AT_EPOCH":17318,"BSTAR":0.0016405454,"MEAN_MOTION_DOT":5.85e-6,"MEAN_MOTION_DDOT":0},{"OBJECT_NAME":"ONEWEB-0468","OBJECT_ID":"2022-012AG","EPOCH":"2025-09-14T05:40:15.199392","MEAN_MOTION":13.10372793,"ECCENTRICITY":0.00014975,"INCLINATION":87.8738,"RA_OF_ASC_NODE":91.3113,"ARG_OF_PERICENTER":85.0819,"MEAN_ANOMALY":275.048,"EPHEMERIS_TYPE":0,"CLASSIFICATION_TYPE":"U","NORAD_CAT_ID":51652,"ELEMENT_SET_NO":999,"REV_AT_EPOCH":17316,"BSTAR":0.0007299697,"MEAN_MOTION_DOT":2.67e-6,"MEAN_MOTION_DDOT":0},{"OBJECT_NAME":"ONEWEB-0473","OBJECT_ID":"2022-012AH","EPOCH":"2025-09-13T23:48:51.652800","MEAN_MOTION":13.10372458,"ECCENTRICITY":0.0001705,"INCLINATION":87.8739,"RA_OF_ASC_NODE":91.3633,"ARG_OF_PERICENTER":81.6246,"MEAN_ANOMALY":278.5074,"EPHEMERIS_TYPE":0,"CLASSIFICATION_TYPE":"U","NORAD_CAT_ID":51653,"ELEMENT_SET_NO":999,"REV_AT_EPOCH":17313,"BSTAR":0.0020437177,"MEAN_MOTION_DOT":7.26e-6,"MEAN_MOTION_DDOT":0},{"OBJECT_NAME":"ONEWEB-0474","OBJECT_ID":"2022-012AJ","EPOCH":"2025-09-13T23:36:54.741024","MEAN_MOTION":13.10374821,"ECCENTRICITY":0.00015591,"INCLINATION":87.8748,"RA_OF_ASC_NODE":91.3259,"ARG_OF_PERICENTER":78.7985,"MEAN_ANOMALY":281.3317,"EPHEMERIS_TYPE":0,"CLASSIFICATION_TYPE":"U","NORAD_CAT_ID":51654,"ELEMENT_SET_NO":999,"REV_AT_EPOCH":17312,"BSTAR":0.0013254861,"MEAN_MOTION_DOT":4.75e-6,"MEAN_MOTION_DDOT":0},{"OBJECT_NAME":"ONEWEB-0475","OBJECT_ID":"2022-012AK","EPOCH":"2025-09-14T04:39:53.146368","MEAN_MOTION":13.17649718,"ECCENTRICITY":0.00016176,"INCLINATION":87.9038,"RA_OF_ASC_NODE":60.7823,"ARG_OF_PERICENTER":65.3661,"MEAN_ANOMALY":294.7639,"EPHEMERIS_TYPE":0,"CLASSIFICATION_TYPE":"U","NORAD_CAT_ID":51655,"ELEMENT_SET_NO":999,"REV_AT_EPOCH":17734,"BSTAR":-8.3686557e-5,"MEAN_MOTION_DOT":-2.0e-7,"MEAN_MOTION_DDOT":0},{"OBJECT_NAME":"ONEWEB-0490","OBJECT_ID":"2022-138A","EPOCH":"2025-09-14T05:41:39.171552","MEAN_MOTION":13.19726714,"ECCENTRICITY":0.00015365,"INCLINATION":87.9291,"RA_OF_ASC_NODE":359.8229,"ARG_OF_PERICENTER":100.1072,"MEAN_ANOMALY":260.0235,"EPHEMERIS_TYPE":0,"CLASSIFICATION_TYPE":"U","NORAD_CAT_ID":54113,"ELEMENT_SET_NO":999,"REV_AT_EPOCH":14043,"BSTAR":0.00028613772,"MEAN_MOTION_DOT":1.27e-6,"MEAN_MOTION_DDOT":0},{"OBJECT_NAME":"ONEWEB-0492","OBJECT_ID":"2022-138B","EPOCH":"2025-09-14T06:18:03.619296","MEAN_MOTION":13.19725373,"ECCENTRICITY":0.0001697,"INCLINATION":87.9283,"RA_OF_ASC_NODE":359.8396,"ARG_OF_PERICENTER":105.9931,"MEAN_ANOMALY":254.1389,"EPHEMERIS_TYPE":0,"CLASSIFICATION_TYPE":"U","NORAD_CAT_ID":54114,"ELEMENT_SET_NO":999,"REV_AT_EPOCH":14044,"BSTAR":0.00014588782,"MEAN_MOTION_DOT":7.1e-7,"MEAN_MOTION_DDOT":0},{"OBJECT_NAME":"ONEWEB-0495","OBJECT_ID":"2022-138C","EPOCH":"2025-09-14T05:46:12.526464","MEAN_MOTION":13.19727097,"ECCENTRICITY":0.00011255,"INCLINATION":87.9275,"RA_OF_ASC_NODE":359.8526,"ARG_OF_PERICENTER":94.9565,"MEAN_ANOMALY":265.1696,"EPHEMERIS_TYPE":0,"CLASSIFICATION_TYPE":"U","NORAD_CAT_ID":54115,"ELEMENT_SET_NO":999,"REV_AT_EPOCH":14042,"BSTAR":0.00030689086,"MEAN_MOTION_DOT":1.36e-6,"MEAN_MOTION_DDOT":0},{"OBJECT_NAME":"ONEWEB-0497","OBJECT_ID":"2022-138D","EPOCH":"2025-09-14T06:04:24.573216","MEAN_MOTION":13.19726725,"ECCENTRICITY":0.00017188,"INCLINATION":87.9291,"RA_OF_ASC_NODE":359.8267,"ARG_OF_PERICENTER":100.3728,"MEAN_ANOMALY":259.7599,"EPHEMERIS_TYPE":0,"CLASSIFICATION_TYPE":"U","NORAD_CAT_ID":54116,"ELEMENT_SET_NO":999,"REV_AT_EPOCH":14041,"BSTAR":0.00011843724,"MEAN_MOTION_DOT":6.0e-7,"MEAN_MOTION_DDOT":0}]
