ONEWEB-0449             
1 51642U 22012W   25256.99559383  .00000655  00000+0  18391-2 0  9995
2 51642  87.8735  91.3401 0002103  80.0415 280.0949 13.10372855173132
ONEWEB-0451             
1 51643U 22012X   25257.18086141  .00000117  00000+0  26734-3 0  9999
2 51643  87.9049  60.7283 0001893  89.6502 270.4847 13.17649385177313
ONEWEB-0452             
1 51644U 22012Y   25256.95136691  .00000015  00000+0  49792-5 0  9998
2 51644  87.9040  60.8364 0001869  84.2450 275.8895 13.17650840177299
ONEWEB-0456             
1 51646U 22012AA  25257.23461236  .00000372  00000+0  10298-2 0  9990
2 51646  87.8743  91.2532 0001490  84.6625 275.4672 13.10369189173205
ONEWEB-0457             
1 51647U 22012AB  25256.98230957  .00000431  00000+0  11971-2 0  9991
2 51647  87.8743  91.3601 0002065  89.5334 270.6030 13.10376404173173
ONEWEB-0458             
1 51648U 22012AC  25257.23295911  .00000499  00000+0  13932-2 0  9995
2 51648  87.8733  91.2813 0001782  81.2964 278.8366 13.10370152173165
ONEWEB-0461             
1 51649U 22012AD  25257.20110516  .00000108  00000+0  24421-3 0  9993
2 51649  87.9050  60.7387 0001822  96.7189 263.4150 13.17651637177545
ONEWEB-0463             
1 51650U 22012AE  25257.18253992  .00000044  00000+0  80462-4 0  9995
2 51650  87.9031  60.8017 0001743  90.9694 269.1638 13.17646831177326
ONEWEB-0464             
1 51651U 22012AF  25257.22964161  .00000585  00000+0  16405-2 0  9992
2 51651  87.8735  91.3205 0001387  83.4253 276.7032 13.10371254173186
ONEWEB-0468             
1 51652U 22012AG  25257.23628703  .00000267  00000+0  72997-3 0  9999
2 51652  87.8738  91.3113 0001497  85.0819 275.0480 13.10372793173162
ONEWEB-0473             
1 51653U 22012AH  25256.99226450  .00000726  00000+0  20437-2 0  9996
2 51653  87.8739  91.3633 0001705  81.6246 278.5074 13.10372458173131
ONEWEB-0474             
1 51654U 22012AJ  25256.98396691  .00000475  00000+0  13255-2 0  9992
2 51654  87.8748  91.3259 0001559  78.7985 281.3317 13.10374821173127
ONEWEB-0475             
1 51655U 22012AK  25257.19436512 -.00000020  00000+0 -83687-4 0  9990
2 51655  87.9038  60.7823 0001617  65.3661 294.7639 13.17649718177346
ONEWEB-0490             
1 54113U 22138A   25257.23725893  .00000127  00000+0  28614-3 0  9993
2 54113  87.9291 359.8229 0001536 100.1072 260.0235 13.19726714140437
ONEWEB-0492             
1 54114U 22138B   25257.26254189  .00000071  00000+0  14589-3 0  9996
2 54114  87.9283 359.8396 0001697 105.9931 254.1389 13.19725373140444
ONEWEB-0495             
1 54115U 22138C   25257.24042276  .00000136  00000+0  30689-3 0  9998
2 54115  87.9275 359.8526 0001125  94.9565 265.1696 13.19727097140423
ONEWEB-0497             
1 54116U 22138D   25257.25306219  .00000060  00000+0  11844-3 0  9998
2 54116  87.9291 359.8267 0001718 100.3728 259.7599 13.19726725140412
